[{"OBJECT_NAME":"STARLINK-2609","OBJECT_ID":"2021-038W","EPOCH":"2026-03-09T22:11:44.736576","MEAN_MOTION":15.30198976,"ECCENTRICITY":0.00012541,"INCLINATION":53.1595,"RA_OF_ASC_NODE":344.4043,"ARG_OF_PERICENTER":96.1405,"MEAN_ANOMALY":263.9739,"EPHEMERIS_TYPE":0,"CLASSIFICATION_TYPE":"U","NORAD_CAT_ID":48373,"ELEMENT_SET_NO":999,"REV_AT_EPOCH":26729,"BSTAR":0.00014287329,"MEAN_MOTION_DOT":3.874e-5,"MEAN_MOTION_DDOT":0},{"OBJECT_NAME":"OBJECT AD","OBJECT_ID":"2023-085AD","EPOCH":"2026-03-09T21:41:29.115744","MEAN_MOTION":15.31779154,"ECCENTRICITY":0.00101154,"INCLINATION":97.4841,"RA_OF_ASC_NODE":180.2223,"ARG_OF_PERICENTER":77.5993,"MEAN_ANOMALY":282.638,"EPHEMERIS_TYPE":0,"CLASSIFICATION_TYPE":"U","NORAD_CAT_ID":57031,"ELEMENT_SET_NO":999,"REV_AT_EPOCH":15156,"BSTAR":0.00068352515,"MEAN_MOTION_DOT":0.00020961,"MEAN_MOTION_DDOT":0}]
